STARLINK-31741          
1 59550U 24074S   25330.02410795 -.00002415  00000+0 -78269-4 0  9991
2 59550  42.9968 208.6600 0000924 254.8939 105.1810 15.27585585 90164
STARLINK-31699          
1 59551U 24074T   25330.03823951  .00000255  00000+0  18796-4 0  9992
2 59551  42.9985 208.7657 0000891 264.9039  95.1711 15.27576859 90165
STARLINK-31750          
1 59552U 24074U   25330.04981551 -.00003621  00000+0 -12208-3 0  9998
2 59552  42.9920 208.8563 0001803  72.0911 288.0137 15.27593084 90167
STARLINK-31723          
1 59553U 24074V   25330.04595856  .00016238  00000+0  59771-3 0  9990
2 59553  42.9971 208.8267 0000647 249.6072 110.4710 15.27611606 90166
STARLINK-31724          
1 59554U 24074W   25329.98258871  .00001267  00000+0  55558-4 0  9991
2 59554  43.0012 173.1658 0001087 277.6926  82.3802 15.27587148 90567
STARLINK-31730          
1 59555U 24074X   25330.07549654  .00000517  00000+0  28332-4 0  9993
2 59555  43.0009 209.0412 0003370 252.1735 107.8749 15.27577246 90161
STARLINK-31718          
1 59556U 24074Y   25330.06393446 -.00006207  00000+0 -21603-3 0  9996
2 59556  43.0030 208.9617 0001796 277.3263  82.7385 15.27606425 90165
STARLINK-31747          
1 59564U 24076A   25330.04292500 -.00001106  00000+0 -30670-4 0  9992
2 59564  43.0021 223.7636 0001209 277.9910  82.0805 15.27578560 90768
STARLINK-31388          
1 59565U 24076B   25330.14025418 -.00012780  00000+0 -45576-3 0  9996
2 59565  43.0029 234.0297 0002043 274.5943  85.4675 15.27571241 90661
STARLINK-31332          
1 59566U 24076C   25330.10685897 -.00001319  00000+0 -38445-4 0  9990
2 59566  43.0023 233.7554 0000447 276.3854  83.6947 15.27576876 90666
STARLINK-31689          
1 59567U 24076D   25330.06893593 -.00000575  00000+0 -11368-4 0  9998
2 59567  43.0016 230.8819 0001337 286.7085  73.3620 15.27574662 90699
STARLINK-31471          
1 59568U 24076E   25330.11328404 -.00001414  00000+0 -41860-4 0  9992
2 59568  43.0036 233.8040 0000816 271.5670  88.5088 15.27584446 90578
STARLINK-31470          
1 59569U 24076F   25330.12789576 -.00000347  00000+0 -30628-5 0  9990
2 59569  43.0032 230.4601 0002636 243.7329 116.3252 15.27577007 90618
STARLINK-31587          
1 59570U 24076G   25330.13641519 -.00000686  00000+0 -15420-4 0  9995
2 59570  43.0032 233.9840 0000996 284.5610  75.5132 15.27573554 90689
STARLINK-31606          
1 59571U 24076H   25330.16670139  .00074246  00000+0  26839-2 0  9994
2 59571  42.9997 233.2339 0001443 257.6509 149.7576 15.27538215  5856
STARLINK-31666          
1 59572U 24076J   25330.12195274  .00003507  00000+0  13692-3 0  9999
2 59572  42.9998 226.9239 0001538 266.9381  93.1295 15.27580911 90744
STARLINK-31683          
1 59573U 24076K   25330.11456463 -.00001521  00000+0 -45786-4 0  9995
2 59573  43.0011 233.8146 0000809 284.1912  75.8850 15.27576147 90660
