[{"OBJECT_NAME":"STARLINK-31741","OBJECT_ID":"2024-074S","EPOCH":"2025-11-26T00:34:42.926880","MEAN_MOTION":15.27585585,"ECCENTRICITY":9.248e-5,"INCLINATION":42.9968,"RA_OF_ASC_NODE":208.66,"ARG_OF_PERICENTER":254.8939,"MEAN_ANOMALY":105.181,"EPHEMERIS_TYPE":0,"CLASSIFICATION_TYPE":"U","NORAD_CAT_ID":59550,"ELEMENT_SET_NO":999,"REV_AT_EPOCH":9016,"BSTAR":-7.8268967e-5,"MEAN_MOTION_DOT":-2.415e-5,"MEAN_MOTION_DDOT":0},{"OBJECT_NAME":"STARLINK-31699","OBJECT_ID":"2024-074T","EPOCH":"2025-11-26T00:55:03.893664","MEAN_MOTION":15.27576859,"ECCENTRICITY":8.91e-5,"INCLINATION":42.9985,"RA_OF_ASC_NODE":208.7657,"ARG_OF_PERICENTER":264.9039,"MEAN_ANOMALY":95.1711,"EPHEMERIS_TYPE":0,"CLASSIFICATION_TYPE":"U","NORAD_CAT_ID":59551,"ELEMENT_SET_NO":999,"REV_AT_EPOCH":9016,"BSTAR":1.8796e-5,"MEAN_MOTION_DOT":2.55e-6,"MEAN_MOTION_DDOT":0},{"OBJECT_NAME":"STARLINK-31750","OBJECT_ID":"2024-074U","EPOCH":"2025-11-26T01:11:44.060064","MEAN_MOTION":15.27593084,"ECCENTRICITY":0.0001803,"INCLINATION":42.992,"RA_OF_ASC_NODE":208.8563,"ARG_OF_PERICENTER":72.0911,"MEAN_ANOMALY":288.0137,"EPHEMERIS_TYPE":0,"CLASSIFICATION_TYPE":"U","NORAD_CAT_ID":59552,"ELEMENT_SET_NO":999,"REV_AT_EPOCH":9016,"BSTAR":-0.00012208,"MEAN_MOTION_DOT":-3.621e-5,"MEAN_MOTION_DDOT":0},{"OBJECT_NAME":"STARLINK-31723","OBJECT_ID":"2024-074V","EPOCH":"2025-11-26T01:06:10.819584","MEAN_MOTION":15.27611606,"ECCENTRICITY":6.47e-5,"INCLINATION":42.9971,"RA_OF_ASC_NODE":208.8267,"ARG_OF_PERICENTER":249.6072,"MEAN_ANOMALY":110.471,"EPHEMERIS_TYPE":0,"CLASSIFICATION_TYPE":"U","NORAD_CAT_ID":59553,"ELEMENT_SET_NO":999,"REV_AT_EPOCH":9016,"BSTAR":0.00059771,"MEAN_MOTION_DOT":0.00016238,"MEAN_MOTION_DDOT":0},{"OBJECT_NAME":"STARLINK-31724","OBJECT_ID":"2024-074W","EPOCH":"2025-11-25T23:34:55.664544","MEAN_MOTION":15.27587148,"ECCENTRICITY":0.0001087,"INCLINATION":43.0012,"RA_OF_ASC_NODE":173.1658,"ARG_OF_PERICENTER":277.6926,"MEAN_ANOMALY":82.3802,"EPHEMERIS_TYPE":0,"CLASSIFICATION_TYPE":"U","NORAD_CAT_ID":59554,"ELEMENT_SET_NO":999,"REV_AT_EPOCH":9056,"BSTAR":5.5557952e-5,"MEAN_MOTION_DOT":1.267e-5,"MEAN_MOTION_DDOT":0},{"OBJECT_NAME":"STARLINK-31730","OBJECT_ID":"2024-074X","EPOCH":"2025-11-26T01:48:42.901056","MEAN_MOTION":15.27577246,"ECCENTRICITY":0.000337,"INCLINATION":43.0009,"RA_OF_ASC_NODE":209.0412,"ARG_OF_PERICENTER":252.1735,"MEAN_ANOMALY":107.8749,"EPHEMERIS_TYPE":0,"CLASSIFICATION_TYPE":"U","NORAD_CAT_ID":59555,"ELEMENT_SET_NO":999,"REV_AT_EPOCH":9016,"BSTAR":2.8332e-5,"MEAN_MOTION_DOT":5.17e-6,"MEAN_MOTION_DDOT":0},{"OBJECT_NAME":"STARLINK-31718","OBJECT_ID":"2024-074Y","EPOCH":"2025-11-26T01:32:03.937344","MEAN_MOTION":15.27606425,"ECCENTRICITY":0.0001796,"INCLINATION":43.003,"RA_OF_ASC_NODE":208.9617,"ARG_OF_PERICENTER":277.3263,"MEAN_ANOMALY":82.7385,"EPHEMERIS_TYPE":0,"CLASSIFICATION_TYPE":"U","NORAD_CAT_ID":59556,"ELEMENT_SET_NO":999,"REV_AT_EPOCH":9016,"BSTAR":-0.00021603,"MEAN_MOTION_DOT":-6.207e-5,"MEAN_MOTION_DDOT":0},{"OBJECT_NAME":"STARLINK-31747","OBJECT_ID":"2024-076A","EPOCH":"2025-11-26T01:01:48.720000","MEAN_MOTION":15.2757856,"ECCENTRICITY":0.0001209,"INCLINATION":43.0021,"RA_OF_ASC_NODE":223.7636,"ARG_OF_PERICENTER":277.991,"MEAN_ANOMALY":82.0805,"EPHEMERIS_TYPE":0,"CLASSIFICATION_TYPE":"U","NORAD_CAT_ID":59564,"ELEMENT_SET_NO":999,"REV_AT_EPOCH":9076,"BSTAR":-3.067e-5,"MEAN_MOTION_DOT":-1.106e-5,"MEAN_MOTION_DDOT":0},{"OBJECT_NAME":"STARLINK-31388","OBJECT_ID":"2024-076B","EPOCH":"2025-11-26T03:21:57.961152","MEAN_MOTION":15.27571241,"ECCENTRICITY":0.0002043,"INCLINATION":43.0029,"RA_OF_ASC_NODE":234.0297,"ARG_OF_PERICENTER":274.5943,"MEAN_ANOMALY":85.4675,"EPHEMERIS_TYPE":0,"CLASSIFICATION_TYPE":"U","NORAD_CAT_ID":59565,"ELEMENT_SET_NO":999,"REV_AT_EPOCH":9066,"BSTAR":-0.00045576,"MEAN_MOTION_DOT":-0.0001278,"MEAN_MOTION_DDOT":0},{"OBJECT_NAME":"STARLINK-31332","OBJECT_ID":"2024-076C","EPOCH":"2025-11-26T02:33:52.615008","MEAN_MOTION":15.27576876,"ECCENTRICITY":4.47e-5,"INCLINATION":43.0023,"RA_OF_ASC_NODE":233.7554,"ARG_OF_PERICENTER":276.3854,"MEAN_ANOMALY":83.6947,"EPHEMERIS_TYPE":0,"CLASSIFICATION_TYPE":"U","NORAD_CAT_ID":59566,"ELEMENT_SET_NO":999,"REV_AT_EPOCH":9066,"BSTAR":-3.8445e-5,"MEAN_MOTION_DOT":-1.319e-5,"MEAN_MOTION_DDOT":0},{"OBJECT_NAME":"STARLINK-31689","OBJECT_ID":"2024-076D","EPOCH":"2025-11-26T01:39:16.064352","MEAN_MOTION":15.27574662,"ECCENTRICITY":0.0001337,"INCLINATION":43.0016,"RA_OF_ASC_NODE":230.8819,"ARG_OF_PERICENTER":286.7085,"MEAN_ANOMALY":73.362,"EPHEMERIS_TYPE":0,"CLASSIFICATION_TYPE":"U","NORAD_CAT_ID":59567,"ELEMENT_SET_NO":999,"REV_AT_EPOCH":9069,"BSTAR":-1.1368e-5,"MEAN_MOTION_DOT":-5.75e-6,"MEAN_MOTION_DDOT":0},{"OBJECT_NAME":"STARLINK-31471","OBJECT_ID":"2024-076E","EPOCH":"2025-11-26T02:43:07.741056","MEAN_MOTION":15.27584446,"ECCENTRICITY":8.16e-5,"INCLINATION":43.0036,"RA_OF_ASC_NODE":233.804,"ARG_OF_PERICENTER":271.567,"MEAN_ANOMALY":88.5088,"EPHEMERIS_TYPE":0,"CLASSIFICATION_TYPE":"U","NORAD_CAT_ID":59568,"ELEMENT_SET_NO":999,"REV_AT_EPOCH":9057,"BSTAR":-4.186e-5,"MEAN_MOTION_DOT":-1.414e-5,"MEAN_MOTION_DDOT":0},{"OBJECT_NAME":"STARLINK-31470","OBJECT_ID":"2024-076F","EPOCH":"2025-11-26T03:04:10.193664","MEAN_MOTION":15.27577007,"ECCENTRICITY":0.0002636,"INCLINATION":43.0032,"RA_OF_ASC_NODE":230.4601,"ARG_OF_PERICENTER":243.7329,"MEAN_ANOMALY":116.3252,"EPHEMERIS_TYPE":0,"CLASSIFICATION_TYPE":"U","NORAD_CAT_ID":59569,"ELEMENT_SET_NO":999,"REV_AT_EPOCH":9061,"BSTAR":-3.0628e-6,"MEAN_MOTION_DOT":-3.47e-6,"MEAN_MOTION_DDOT":0},{"OBJECT_NAME":"STARLINK-31587","OBJECT_ID":"2024-076G","EPOCH":"2025-11-26T03:16:26.272416","MEAN_MOTION":15.27573554,"ECCENTRICITY":9.96e-5,"INCLINATION":43.0032,"RA_OF_ASC_NODE":233.984,"ARG_OF_PERICENTER":284.561,"MEAN_ANOMALY":75.5132,"EPHEMERIS_TYPE":0,"CLASSIFICATION_TYPE":"U","NORAD_CAT_ID":59570,"ELEMENT_SET_NO":999,"REV_AT_EPOCH":9068,"BSTAR":-1.542e-5,"MEAN_MOTION_DOT":-6.86e-6,"MEAN_MOTION_DDOT":0},{"OBJECT_NAME":"STARLINK-31606","OBJECT_ID":"2024-076H","EPOCH":"2025-11-26T04:00:03.000096","MEAN_MOTION":15.27538215,"ECCENTRICITY":0.0001443,"INCLINATION":42.9997,"RA_OF_ASC_NODE":233.2339,"ARG_OF_PERICENTER":257.6509,"MEAN_ANOMALY":149.7576,"EPHEMERIS_TYPE":0,"CLASSIFICATION_TYPE":"U","NORAD_CAT_ID":59571,"ELEMENT_SET_NO":999,"REV_AT_EPOCH":585,"BSTAR":0.0026839,"MEAN_MOTION_DOT":0.00074246,"MEAN_MOTION_DDOT":0},{"OBJECT_NAME":"STARLINK-31666","OBJECT_ID":"2024-076J","EPOCH":"2025-11-26T02:55:36.716736","MEAN_MOTION":15.27580911,"ECCENTRICITY":0.0001538,"INCLINATION":42.9998,"RA_OF_ASC_NODE":226.9239,"ARG_OF_PERICENTER":266.9381,"MEAN_ANOMALY":93.1295,"EPHEMERIS_TYPE":0,"CLASSIFICATION_TYPE":"U","NORAD_CAT_ID":59572,"ELEMENT_SET_NO":999,"REV_AT_EPOCH":9074,"BSTAR":0.00013692,"MEAN_MOTION_DOT":3.507e-5,"MEAN_MOTION_DDOT":0},{"OBJECT_NAME":"STARLINK-31683","OBJECT_ID":"2024-076K","EPOCH":"2025-11-26T02:44:58.384032","MEAN_MOTION":15.27576147,"ECCENTRICITY":8.09e-5,"INCLINATION":43.0011,"RA_OF_ASC_NODE":233.8146,"ARG_OF_PERICENTER":284.1912,"MEAN_ANOMALY":75.885,"EPHEMERIS_TYPE":0,"CLASSIFICATION_TYPE":"U","NORAD_CAT_ID":59573,"ELEMENT_SET_NO":999,"REV_AT_EPOCH":9066,"BSTAR":-4.5786e-5,"MEAN_MOTION_DOT":-1.521e-5,"MEAN_MOTION_DDOT":0}]
